NIMIQ 2                 
1 27632U 02062A   25223.27598604 -.00000067  00000+0  00000+0 0  9997
2 27632   8.7210  60.0946 0005319  81.2424 168.8135  1.00272336 41072
ANIK F2                 
1 28378U 04027A   25223.23284966 -.00000049  00000+0  00000+0 0  9997
2 28378   2.4836  83.6341 0005182  26.0144 182.9963  1.00271933 38152
XTAR-EUR                
1 28542U 05005A   25223.25511605  .00000151  00000+0  00000+0 0  9995
2 28542   3.5291  80.5826 0004075  45.5647 314.6786  1.00270400 75088
ANIK F1R                
1 28868U 05036A   25223.23362966 -.00000074  00000+0  00000+0 0  9997
2 28868   3.5125  80.4667 0003470  38.9857 177.2937  1.00271614 43347
ANIK F3                 
1 31102U 07009A   25223.23137633  .00000000  00000+0  00000+0 0  9993
2 31102   0.3899  88.0269 0002788  48.0863 148.4048  1.00271106 43458
NIMIQ 4                 
1 33373U 08044A   25223.23865635 -.00000219  00000+0  00000+0 0  9998
2 33373   0.0098  68.5516 0001756  51.4067 203.8845  1.00272732 61877
TELSTAR 11N             
1 34111U 09009A   25223.09489069 -.00000250  00000+0  00000+0 0  9993
2 34111   0.0247 107.7753 0002758  27.4382 181.2139  1.00269465 43132
TERRESTAR-1             
1 35496U 09035A   25223.16150010 -.00000055  00000+0  00000+0 0  9991
2 35496   4.9231  48.7109 0002551  86.8682 131.4206  1.00270574 59027
NIMIQ 5                 
1 35873U 09050A   25223.16912681 -.00000256  00000+0  00000+0 0  9990
2 35873   0.0541 271.4426 0002648 222.3141 174.3112  1.00272027 58237
SKYTERRA 1              
1 37218U 10061A   25223.15016869 -.00000116  00000+0  00000+0 0  9996
2 37218   4.4620  50.7337 0002134 123.3415  98.5392  1.00271800 54085
TELSTAR 14R             
1 37602U 11021A   25222.97462943 -.00000279  00000+0  00000+0 0  9997
2 37602   0.0140  86.4608 0001664   6.6291 154.4678  1.00271244 52720
NIMIQ 6                 
1 38342U 12026A   25223.28807740 -.00000172  00000+0  00000+0 0  9990
2 38342   0.0574 274.6792 0002799 228.4228 189.4953  1.00272242 47303
ANIK G1                 
1 39127U 13014A   25223.27698850 -.00000073  00000+0  00000+0 0  9999
2 39127   0.0330 277.7462 0002371 254.3890 140.2671  1.00271340 45142
TELSTAR 12V             
1 41036U 15068A   25223.25191642 -.00000118  00000+0  00000+0 0  9997
2 41036   0.0203 109.5584 0002256  28.8783 257.2080  1.00269678 35511
VIASAT-2                
1 42740U 17029A   25223.16964681 -.00000264  00000+0  00000+0 0  9992
2 42740   0.0411 256.9276 0000095 240.8768 173.2550  1.00269143 30092
LEO 1 (LEO VANTAGE 1)   
1 43113U 18004C   25223.18216203  .00003055  00000+0  22199-3 0  9990
2 43113  99.2693  96.2479 0358298 309.2572  47.7336 14.65360941392049
TELSTAR 19V             
1 43562U 18059A   25222.02893041 -.00000278  00000+0  00000+0 0  9999
2 43562   0.0247 163.2371 0003216 336.2469 126.6764  1.00270088 26021
TELSTAR 18V             
1 43611U 18069A   25222.99678052 -.00000293  00000+0  00000+0 0  9991
2 43611   0.0110 280.2922 0002219 219.1302 317.1246  1.00270084 25526
AMOS-17                 
1 44479U 19050A   25223.25824312  .00000110  00000+0  00000+0 0  9994
2 44479   0.0230  93.1893 0002586  60.5999 276.1499  1.00270467 22073
